NORAD_CAT_ID,OBJECT_NAME,OBJECT_TYPE,EPOCH,MEAN_MOTION,ECCENTRICITY,INCLINATION,RA_OF_ASC_NODE,ARG_OF_PERICENTER,MEAN_ANOMALY,BSTAR,MEAN_MOTION_DOT,MEAN_MOTION_DDOT,TLE_LINE0,TLE_LINE1,TLE_LINE2,SEMIMAJOR_AXIS,PERIOD,APOGEE,PERIGEE,DECAYED
52274.0,STARLINK-3790,PAYLOAD,2023-03-02 04:21:46,15.08857811,7.2e-05,53.217,22.9672,131.7179,228.3875,0.0019505,0.00030906,0.0,0 STARLINK-3790,1 52274U 22041P   23061.18178355  .00030906  00000-0  19505-2 0  9999,2 52274  53.2170  22.9672 0000720 131.7179 228.3875 15.08857811 48995,6917.826,95.436,540.189,539.193,0.0
52274.0,STARLINK-3790,PAYLOAD,2023-03-02 20:15:36,15.08870278,5.71e-05,53.2172,19.9941,140.3612,219.7422,0.0014,0.00022082,0.0,0 STARLINK-3790,1 52274U 22041P   23061.84417746  .00022082  00000-0  14000-2 0  9993,2 52274  53.2172  19.9941 0000571 140.3612 219.7422 15.08870278 49090,6917.788,95.436,540.048,539.258,0.0
52274.0,STARLINK-3790,PAYLOAD,2023-03-03 05:47:55,15.08890331,4.76e-05,53.2166,18.2075,112.9784,247.1258,0.0022081,0.00035078,0.0,0 STARLINK-3790,1 52274U 22041P   23062.24161048  .00035078  00000-0  22081-2 0  9996,2 52274  53.2166  18.2075 0000476 112.9784 247.1258 15.08890331 47937,6917.727,95.434,539.921,539.262,0.0
52274.0,STARLINK-3790,PAYLOAD,2023-03-04 04:03:18,15.0887256,9.52e-05,53.2164,14.0448,88.6308,271.4793,0.00076534,0.00011924,0.0,0 STARLINK-3790,1 52274U 22041P   23063.16896197  .00011924  00000-0  76534-3 0  9995,2 52274  53.2164  14.0448 0000952  88.6308 271.4793 15.08872560 49292,6917.781,95.435,540.304,538.987,0.0
52274.0,STARLINK-3790,PAYLOAD,2023-03-05 02:18:42,15.08840915,9.88e-05,53.216,9.8813,114.7966,245.3129,0.00019348,2.793e-05,0.0,0 STARLINK-3790,1 52274U 22041P   23064.09632659  .00002793  00000-0  19348-3 0  9993,2 52274  53.2160   9.8813 0000988 114.7966 245.3129 15.08840915 49434,6917.878,95.437,540.426,539.059,0.0
52274.0,STARLINK-3790,PAYLOAD,2023-03-05 03:54:05,15.08840675,9.05e-05,53.2162,9.5841,91.0545,269.0551,0.00025108,3.711e-05,0.0,0 STARLINK-3790,1 52274U 22041P   23064.16256797  .00003711  00000-0  25108-3 0  9998,2 52274  53.2162   9.5841 0000905  91.0545 269.0551 15.08840675 48224,6917.878,95.438,540.369,539.117,0.0
52274.0,STARLINK-3790,PAYLOAD,2023-03-06 05:20:16,15.08866757,0.0001056,53.2173,4.8249,92.7649,267.3464,0.0013745,0.00021671,0.0,0 STARLINK-3790,1 52274U 22041P   23065.22240831  .00021671  00000-0  13745-2 0  9996,2 52274  53.2173   4.8249 0001056  92.7649 267.3464 15.08866757 49603,6917.799,95.436,540.394,538.933,0.0
52274.0,STARLINK-3790,PAYLOAD,2023-03-06 19:38:45,15.08827384,0.0001431,53.2176,2.1517,70.629,289.4857,-8.651e-05,-1.664e-05,0.0,0 STARLINK-3790,1 52274U 22041P   23065.81858029 -.00001664  00000-0 -86510-4 0  9999,2 52274  53.2176   2.1517 0001431  70.6290 289.4857 15.08827384 49692,6917.919,95.438,540.774,538.794,0.0
52274.0,STARLINK-3790,PAYLOAD,2023-03-07 05:11:03,15.08846087,0.000129,53.2165,0.3668,74.5032,285.6103,0.00057997,8.956e-05,0.0,0 STARLINK-3790,1 52274U 22041P   23066.21601730  .00008956  00000-0  57997-3 0  9994,2 52274  53.2165   0.3668 0001290  74.5032 285.6103 15.08846087 49757,6917.862,95.437,540.619,538.834,0.0
52274.0,STARLINK-3790,PAYLOAD,2023-03-07 19:29:32,15.08836706,0.000126,53.2168,357.6895,74.0219,286.0912,0.0003992,6.07e-05,0.0,0 STARLINK-3790,1 52274U 22041P   23066.81218126  .00006070  00000-0  39920-3 0  9994,2 52274  53.2168 357.6895 0001260  74.0219 286.0912 15.08836706 49849,6917.89,95.438,540.627,538.884,0.0
52274.0,STARLINK-3790,PAYLOAD,2023-03-08 01:51:04,15.08856041,0.0001305,53.2161,356.5014,81.6893,278.4247,0.0010967,0.00017217,0.0,0 STARLINK-3790,1 52274U 22041P   23067.07713804  .00017217  00000-0  10967-2 0  9990,2 52274  53.2161 356.5014 0001305  81.6893 278.4247 15.08856041 49889,6917.831,95.437,540.599,538.794,0.0
52274.0,STARLINK-3790,PAYLOAD,2023-03-08 19:20:19,15.08852458,0.0001539,53.216,353.2316,82.6554,277.4613,0.00048398,7.426e-05,0.0,0 STARLINK-3790,1 52274U 22041P   23067.80577913  .00007426  00000-0  48398-3 0  9991,2 52274  53.2160 353.2316 0001539  82.6554 277.4613 15.08852458 49997,6917.842,95.437,540.772,538.643,0.0
52274.0,STARLINK-3790,PAYLOAD,2023-03-09 22:21:52,15.08846381,0.0001486,53.2164,348.1743,129.0415,231.071,0.00082993,0.00012947,0.0,0 STARLINK-3790,1 52274U 22041P   23068.93185824  .00012947  00000-0  82993-3 0  9995,2 52274  53.2164 348.1743 0001486 129.0415 231.0710 15.08846381 48947,6917.861,95.437,540.754,538.698,0.0
52274.0,STARLINK-3790,PAYLOAD,2023-03-10 01:32:38,15.08871446,9.58e-05,53.2159,347.5803,124.798,235.3102,0.0016531,0.00026142,0.0,0 STARLINK-3790,1 52274U 22041P   23069.06433671  .00026142  00000-0  16531-2 0  9992,2 52274  53.2159 347.5803 0000958 124.7980 235.3102 15.08871446 50184,6917.784,95.436,540.312,538.987,0.0
52274.0,STARLINK-3790,PAYLOAD,2023-03-10 17:26:29,15.08851564,0.000179,53.2148,344.6072,117.2853,242.8321,0.00049998,7.681e-05,0.0,0 STARLINK-3790,1 52274U 22041P   23069.72673238  .00007681  00000-0  49998-3 0  9991,2 52274  53.2148 344.6072 0001790 117.2853 242.8321 15.08851564 50285,6917.845,95.437,540.948,538.472,0.0
52274.0,STARLINK-3790,PAYLOAD,2023-03-11 04:34:11,15.08872991,6.38e-05,53.2149,342.5226,73.6192,286.487,0.0012291,0.00019345,0.0,0 STARLINK-3790,1 52274U 22041P   23070.19040878  .00019345  00000-0  12291-2 0  9997,2 52274  53.2149 342.5226 0000638  73.6192 286.4870 15.08872991 50353,6917.78,95.435,540.086,539.203,0.0
52274.0,STARLINK-3790,PAYLOAD,2023-03-11 17:17:17,15.08838457,0.0002278,53.2147,340.1455,96.4766,263.6485,0.00056202,8.667e-05,0.0,0 STARLINK-3790,1 52274U 22041P   23070.72033858  .00008667  00000-0  56202-3 0  9992,2 52274  53.2147 340.1455 0002278  96.4766 263.6485 15.08838457 50438,6917.885,95.438,541.326,538.174,0.0
52274.0,STARLINK-3790,PAYLOAD,2023-03-11 23:38:50,15.0882811,8.94e-05,53.2154,338.9565,89.6905,270.4189,0.00053819,8.285e-05,0.0,0 STARLINK-3790,1 52274U 22041P   23070.98530134  .00008285  00000-0  53819-3 0  9996,2 52274  53.2154 338.9565 0000894  89.6905 270.4189 15.08828110 50470,6917.917,95.438,540.4,539.163,0.0
52274.0,STARLINK-3790,PAYLOAD,2023-03-12 01:14:13,15.08833569,9.64e-05,53.2154,338.6584,75.0008,285.1091,0.00078139,0.00012168,0.0,0 STARLINK-3790,1 52274U 22041P   23071.05154215  .00012168  00000-0  78139-3 0  9994,2 52274  53.2154 338.6584 0000964  75.0008 285.1091 15.08833569 49263,6917.9,95.438,540.432,539.098,0.0
52274.0,STARLINK-3790,PAYLOAD,2023-03-13 04:15:46,15.08848917,9.71e-05,53.2152,333.603,66.6814,293.4281,0.00064732,0.00010032,0.0,0 STARLINK-3790,1 52274U 22041P   23072.17762343  .00010032  00000-0  64732-3 0  9997,2 52274  53.2152 333.6030 0000971  66.6814 293.4281 15.08848917 50652,6917.853,95.437,540.39,539.046,0.0
52274.0,STARLINK-3790,PAYLOAD,2023-03-13 21:45:02,15.08823273,7.71e-05,53.2154,330.3325,52.3524,307.7538,-9.9813e-05,-1.875e-05,0.0,0 STARLINK-3790,1 52274U 22041P   23072.90627526 -.00001875  00000-0 -99813-4 0  9997,2 52274  53.2154 330.3325 0000771  52.3524 307.7538 15.08823273 49541,6917.932,95.439,540.33,539.263,0.0
52274.0,STARLINK-3790,PAYLOAD,2023-03-14 02:31:11,15.08834049,0.0001322,53.2157,329.4385,72.4525,287.6612,0.00026697,3.963e-05,0.0,0 STARLINK-3790,1 52274U 22041P   23073.10499689  .00003963  00000-0  26697-3 0  9994,2 52274  53.2157 329.4385 0001322  72.4525 287.6612 15.08834049 50797,6917.899,95.438,540.678,538.849,0.0
52274.0,STARLINK-3790,PAYLOAD,2023-03-14 10:28:07,15.08835008,0.0001279,53.216,327.9506,80.7751,279.3385,0.00031479,4.725e-05,0.0,0 STARLINK-3790,1 52274U 22041P   23073.43619876  .00004725  00000-0  31479-3 0  9993,2 52274  53.2160 327.9506 0001279  80.7751 279.3385 15.08835008 49624,6917.896,95.438,540.645,538.876,0.0
52274.0,STARLINK-3790,PAYLOAD,2023-03-14 21:35:48,15.08844474,6.34e-05,53.2157,325.8714,42.786,317.3181,0.00065699,0.00010185,0.0,0 STARLINK-3790,1 52274U 22041P   23073.89987234  .00010185  00000-0  65699-3 0  9997,2 52274  53.2157 325.8714 0000634  42.7860 317.3181 15.08844474 49692,6917.867,95.437,540.17,539.293,0.0
52274.0,STARLINK-3790,PAYLOAD,2023-03-15 02:21:58,15.0886535,0.0001149,53.2147,324.9782,73.1006,287.0112,0.0013756,0.00021688,0.0,0 STARLINK-3790,1 52274U 22041P   23074.09858974  .00021688  00000-0  13756-2 0  9994,2 52274  53.2147 324.9782 0001149  73.1006 287.0112 15.08865350 50941,6917.803,95.436,540.463,538.873,0.0
52274.0,STARLINK-3790,PAYLOAD,2023-03-15 16:40:26,15.08850597,9.06e-05,53.2162,322.3012,96.925,263.1845,0.00032734,4.927e-05,0.0,0 STARLINK-3790,1 52274U 22041P   23074.69475125  .00004927  00000-0  32734-3 0  9998,2 52274  53.2162 322.3012 0000906  96.9250 263.1845 15.08850597 51036,6917.848,95.437,540.34,539.086,0.0
52274.0,STARLINK-3790,PAYLOAD,2023-03-15 21:26:35,15.08856531,0.0001066,53.215,321.4104,95.0373,265.0741,0.00055261,8.522e-05,0.0,0 STARLINK-3790,1 52274U 22041P   23074.89346946  .00008522  00000-0  55261-3 0  9993,2 52274  53.2150 321.4104 0001066  95.0373 265.0741 15.08856531 49845,6917.83,95.437,540.432,538.957,0.0
52274.0,STARLINK-3790,PAYLOAD,2023-03-16 02:12:45,15.08862212,0.0001173,53.2154,320.5178,89.2533,270.8594,0.00079418,0.00012382,0.0,0 STARLINK-3790,1 52274U 22041P   23075.09218792  .00012382  00000-0  79418-3 0  9992,2 52274  53.2154 320.5178 0001173  89.2533 270.8594 15.08862212 51095,6917.812,95.436,540.489,538.866,0.0
52274.0,STARLINK-3790,PAYLOAD,2023-03-16 22:52:47,15.08830931,0.000134,53.2155,316.6525,71.6168,288.497,0.00092319,0.00014431,0.0,0 STARLINK-3790,1 52274U 22041P   23075.95332450  .00014431  00000-0  92319-3 0  9997,2 52274  53.2155 316.6525 0001340  71.6168 288.4970 15.08830931 50009,6917.908,95.438,540.7,538.846,0.0
52274.0,STARLINK-3790,PAYLOAD,2023-03-17 02:03:33,15.08831429,0.0001248,53.2156,316.0586,68.9773,291.1352,0.00066738,0.00010347,0.0,0 STARLINK-3790,1 52274U 22041P   23076.08580501  .00010347  00000-0  66738-3 0  9992,2 52274  53.2156 316.0586 0001248  68.9773 291.1352 15.08831429 51244,6917.907,95.438,540.635,538.908,0.0
